NORAD_CAT_ID,OBJECT_NAME,OBJECT_TYPE,EPOCH,MEAN_MOTION,ECCENTRICITY,INCLINATION,RA_OF_ASC_NODE,ARG_OF_PERICENTER,MEAN_ANOMALY,BSTAR,MEAN_MOTION_DOT,MEAN_MOTION_DDOT,TLE_LINE0,TLE_LINE1,TLE_LINE2,SEMIMAJOR_AXIS,PERIOD,APOGEE,PERIGEE,DECAYED
55936.0,STARLINK-5882,PAYLOAD,2023-09-21 22:00:01,15.29968236,0.0003401,70.0008,13.9544,277.2005,106.4478,-0.035883,-0.00965537,0.0,0 STARLINK-5882,1 55936U 23037Y   23264.91668981 -.00965537  00000-0 -35883-1 0  9993,2 55936  70.0008  13.9544 0003401 277.2005 106.4478 15.29968236  5974,6854.044,94.12,478.24,473.578,0.0
55936.0,STARLINK-5882,PAYLOAD,2023-09-22 14:00:01,15.28643867,0.0003357,70.0012,12.1912,277.6733,175.1427,-0.035875,-0.00917966,0.0,0 STARLINK-5882,1 55936U 23037Y   23265.58334491 -.00917966  00000-0 -35875-1 0  9997,2 55936  70.0012  12.1912 0003357 277.6733 175.1427 15.28643867 30111,6858.002,94.201,482.17,477.565,0.0
55936.0,STARLINK-5882,PAYLOAD,2023-09-22 22:00:00,15.28010278,0.0003303,70.0008,11.3106,278.8292,207.417,-0.037978,-0.00962323,0.0,0 STARLINK-5882,1 55936U 23037Y   23265.91667824 -.00962323  00000-0 -37978-1 0  9996,2 55936  70.0008  11.3106 0003303 278.8292 207.4170 15.28010278  5767,6859.898,94.24,484.029,479.497,0.0
55936.0,STARLINK-5882,PAYLOAD,2023-09-23 14:00:01,15.2668186,0.0003251,70.0011,9.5525,277.3011,273.4853,-0.03772,-0.00909678,0.0,0 STARLINK-5882,1 55936U 23037Y   23266.58334491 -.00909678  00000-0 -37720-1 0  9990,2 55936  70.0011   9.5525 0003251 277.3011 273.4853 15.26681860  5861,6863.877,94.322,487.973,483.51,0.0
55936.0,STARLINK-5882,PAYLOAD,2023-09-23 22:00:01,15.26053202,0.0003222,70.0008,8.6748,276.083,305.8495,-0.040367,-0.00963582,0.0,0 STARLINK-5882,1 55936U 23037Y   23266.91668981 -.00963582  00000-0 -40367-1 0  9996,2 55936  70.0008   8.6748 0003222 276.0830 305.8495 15.26053202 30321,6865.762,94.361,489.839,485.415,0.0
55936.0,STARLINK-5882,PAYLOAD,2023-09-24 14:00:01,15.24723148,0.0003302,70.0013,6.9222,276.1196,5.5949,-0.039797,-0.0091624,0.0,0 STARLINK-5882,1 55936U 23037Y   23267.58334491 -.00916240  00000-0 -39797-1 0  9990,2 55936  70.0013   6.9222 0003302 276.1196   5.5949 15.24723148 30420,6869.754,94.443,493.887,489.351,0.0
55936.0,STARLINK-5882,PAYLOAD,2023-09-24 22:00:00,15.24094466,0.0003335,70.001,6.0471,275.7817,34.6696,-0.042729,-0.00961765,0.0,0 STARLINK-5882,1 55936U 23037Y   23267.91667824 -.00961765  00000-0 -42729-1 0  9997,2 55936  70.0010   6.0471 0003335 275.7817  34.6696 15.24094466  6019,6871.643,94.482,495.8,491.216,0.0
55936.0,STARLINK-5882,PAYLOAD,2023-09-25 14:00:01,15.22765646,0.0003425,70.0014,4.2999,277.9604,87.7046,-0.042111,-0.00914651,0.0,0 STARLINK-5882,1 55936U 23037Y   23268.58335648 -.00914651  00000-0 -42111-1 0  9994,2 55936  70.0014   4.2999 0003425 277.9604  87.7046 15.22765646 30575,6875.64,94.565,499.86,495.15,0.0
55936.0,STARLINK-5882,PAYLOAD,2023-09-26 00:00:00,15.21953551,0.0003204,70.0014,3.2096,276.5876,211.8879,-0.043803,-0.00927748,0.0,0 STARLINK-5882,1 55936U 23037Y   23269.00001157 -.00927748  00000-0 -43803-1 0  9997,2 55936  70.0014   3.2096 0003204 276.5876 211.8879 15.21953551  5976,6878.086,94.615,502.154,497.747,0.0
55936.0,STARLINK-5882,PAYLOAD,2023-09-26 14:00:01,15.2080756,0.0003352,70.0017,1.6856,280.3256,162.1865,-0.04449,-0.00912252,0.0,0 STARLINK-5882,1 55936U 23037Y   23269.58335648 -.00912252  00000-0 -44490-1 0  9992,2 55936  70.0017   1.6856 0003352 280.3256 162.1865 15.20807560 30725,6881.54,94.687,505.712,501.099,0.0
55936.0,STARLINK-5882,PAYLOAD,2023-09-26 22:00:00,15.20177772,0.0003265,70.0015,0.8159,279.4501,187.0424,-0.047668,-0.00956035,0.0,0 STARLINK-5882,1 55936U 23037Y   23269.91667824 -.00956035  00000-0 -47668-1 0  9990,2 55936  70.0015   0.8159 0003265 279.4501 187.0424 15.20177772  5808,6883.441,94.726,507.553,503.058,0.0
55936.0,STARLINK-5882,PAYLOAD,2023-09-27 14:00:01,15.18846987,0.0003255,70.0017,359.0793,280.8938,231.3625,-0.046744,-0.00905673,0.0,0 STARLINK-5882,1 55936U 23037Y   23270.58334491 -.00905673  00000-0 -46744-1 0  9992,2 55936  70.0017 359.0793 0003255 280.8938 231.3625 15.18846987 30871,6887.461,94.809,511.568,507.084,0.0
55936.0,STARLINK-5882,PAYLOAD,2023-09-28 06:00:00,15.17555245,0.0003129,70.0018,357.3462,273.3311,281.5397,-0.048946,-0.00913001,0.0,0 STARLINK-5882,1 55936U 23037Y   23271.25001157 -.00913001  00000-0 -48946-1 0  9997,2 55936  70.0018 357.3462 0003129 273.3311 281.5397 15.17555245 30986,6891.369,94.889,515.39,511.078,0.0
55936.0,STARLINK-5882,PAYLOAD,2023-09-28 16:00:30,15.16720722,0.0003272,70.0016,356.2637,277.735,34.0941,-0.048748,-0.00889546,0.0,0 STARLINK-5882,1 55936U 23037Y   23271.66702546 -.00889546  00000-0 -48748-1 0  9998,2 55936  70.0016 356.2637 0003272 277.7350  34.0941 15.16720722  6023,6893.897,94.942,518.017,513.506,0.0
55936.0,STARLINK-5882,PAYLOAD,2023-09-28 22:00:01,15.16262459,0.0003089,70.0014,355.6164,274.2882,320.1467,-0.05335,-0.00955478,0.0,0 STARLINK-5882,1 55936U 23037Y   23271.91668981 -.00955478  00000-0 -53350-1 0  9993,2 55936  70.0014 355.6164 0003089 274.2882 320.1467 15.16262459 31081,6895.286,94.97,519.28,515.021,0.0
55936.0,STARLINK-5882,PAYLOAD,2023-09-29 14:00:01,15.14930422,0.0003205,70.0014,353.8902,276.2221,354.5256,-0.051889,-0.00899008,0.0,0 STARLINK-5882,1 55936U 23037Y   23272.58334491 -.00899008  00000-0 -51889-1 0  9994,2 55936  70.0014 353.8902 0003205 276.2221 354.5256 15.14930422 31188,6899.327,95.054,523.403,518.981,0.0
55936.0,STARLINK-5882,PAYLOAD,2023-09-30 06:00:00,15.13646821,0.0003305,70.0012,352.1675,270.6256,33.3467,-0.055196,-0.00920556,0.0,0 STARLINK-5882,1 55936U 23037Y   23273.25001157 -.00920556  00000-0 -55196-1 0  9997,2 55936  70.0012 352.1675 0003305 270.6256  33.3467 15.13646821 31285,6903.227,95.134,527.373,522.81,0.0
55936.0,STARLINK-5882,PAYLOAD,2023-10-01 06:00:00,15.11692808,0.0003323,70.0007,349.5897,272.7582,75.2042,-0.058632,-0.00925367,0.0,0 STARLINK-5882,1 55936U 23037Y   23274.25001157 -.00925367  00000-0 -58632-1 0  9991,2 55936  70.0007 349.5897 0003323 272.7582  75.2042 15.11692808 31435,6909.174,95.257,533.335,528.743,0.0
55936.0,STARLINK-5882,PAYLOAD,2023-10-01 14:00:01,15.11017494,0.0003329,70.0004,348.732,279.3388,81.7369,-0.057962,-0.00899723,0.0,0 STARLINK-5882,1 55936U 23037Y   23274.58334491 -.00899723  00000-0 -57962-1 0  9998,2 55936  70.0004 348.7320 0003329 279.3388  81.7369 15.11017494  5838,6911.233,95.3,535.398,530.797,0.0
55936.0,STARLINK-5882,PAYLOAD,2023-10-01 22:00:00,15.10381086,0.0003266,70.0001,347.8752,277.3614,96.0279,-0.061791,-0.00939199,0.0,0 STARLINK-5882,1 55936U 23037Y   23274.91667824 -.00939199  00000-0 -61791-1 0  9991,2 55936  70.0001 347.8752 0003266 277.3614  96.0279 15.10381086  5888,6913.174,95.34,537.297,532.781,0.0
55936.0,STARLINK-5882,PAYLOAD,2023-10-02 06:00:00,15.09737879,0.0003328,70.0002,347.0193,274.6087,110.3039,-0.062184,-0.00929312,0.0,0 STARLINK-5882,1 55936U 23037Y   23275.25001157 -.00929312  00000-0 -62184-1 0  9993,2 55936  70.0002 347.0193 0003328 274.6087 110.3039 15.09737879 31586,6915.137,95.381,539.304,534.701,0.0
55936.0,STARLINK-5882,PAYLOAD,2023-10-02 22:00:00,15.08420649,0.0003254,69.9997,345.3099,278.2218,127.425,-0.064702,-0.00932293,0.0,0 STARLINK-5882,1 55936U 23037Y   23275.91667824 -.00932293  00000-0 -64702-1 0  9995,2 55936  69.9997 345.3099 0003254 278.2218 127.4250 15.08420649  6046,6919.162,95.464,543.279,538.776,0.0
55936.0,STARLINK-5882,PAYLOAD,2023-10-03 06:00:00,15.07782963,0.0003306,69.9999,344.4565,275.7167,139.1054,-0.06589,-0.00932949,0.0,0 STARLINK-5882,1 55936U 23037Y   23276.25001157 -.00932949  00000-0 -65890-1 0  9991,2 55936  69.9999 344.4565 0003306 275.7167 139.1054 15.07782963 31734,6921.113,95.504,545.266,540.69,0.0
55936.0,STARLINK-5882,PAYLOAD,2023-10-03 14:00:01,15.07100594,0.0003336,69.9998,343.6044,281.605,141.6381,-0.064141,-0.00894408,0.0,0 STARLINK-5882,1 55936U 23037Y   23276.58334491 -.00894408  00000-0 -64141-1 0  9992,2 55936  69.9998 343.6044 0003336 281.6050 141.6381 15.07100594  6148,6923.202,95.548,547.377,542.758,0.0
55936.0,STARLINK-5882,PAYLOAD,2023-10-03 22:00:00,15.06459642,0.0003216,69.9997,342.7522,278.3714,152.4924,-0.067666,-0.00924831,0.0,0 STARLINK-5882,1 55936U 23037Y   23276.91667824 -.00924831  00000-0 -67666-1 0  9997,2 55936  69.9997 342.7522 0003216 278.3714 152.4924 15.06459642  5923,6925.166,95.588,549.258,544.804,0.0
55936.0,STARLINK-5882,PAYLOAD,2023-10-04 14:00:01,15.05141856,0.0003294,69.9997,341.0511,281.6353,162.1312,-0.067377,-0.00891249,0.0,0 STARLINK-5882,1 55936U 23037Y   23277.58334491 -.00891249  00000-0 -67377-1 0  9997,2 55936  69.9997 341.0511 0003294 281.6353 162.1312 15.05141856  5973,6929.207,95.672,553.355,548.79,0.0
55936.0,STARLINK-5882,PAYLOAD,2023-10-04 22:00:01,15.04498588,0.0003173,69.9995,340.202,278.0106,171.0925,-0.070696,-0.00917049,0.0,0 STARLINK-5882,1 55936U 23037Y   23277.91668981 -.00917049  00000-0 -70696-1 0  9993,2 55936  69.9995 340.2020 0003173 278.0106 171.0925 15.04498588  6032,6931.182,95.713,555.247,550.848,0.0
55936.0,STARLINK-5882,PAYLOAD,2023-10-05 06:00:00,15.0387198,0.0003208,69.9998,339.3538,275.8689,177.6509,-0.073688,-0.00938223,0.0,0 STARLINK-5882,1 55936U 23037Y   23278.25001157 -.00938223  00000-0 -73688-1 0  9998,2 55936  69.9998 339.3538 0003208 275.8689 177.6509 15.03871980 32037,6933.107,95.753,557.197,552.748,0.0
55936.0,STARLINK-5882,PAYLOAD,2023-10-05 14:00:01,15.03183353,0.0003272,69.9997,338.507,281.3367,175.9121,-0.070758,-0.00888336,0.0,0 STARLINK-5882,1 55936U 23037Y   23278.58334491 -.00888336  00000-0 -70758-1 0  9998,2 55936  69.9997 338.5070 0003272 281.3367 175.9121 15.03183353  6137,6935.225,95.797,559.359,554.82,0.0
55936.0,STARLINK-5882,PAYLOAD,2023-10-05 22:00:00,15.02532182,0.0003175,69.9998,337.662,276.6979,183.4787,-0.072483,-0.00893907,0.0,0 STARLINK-5882,1 55936U 23037Y   23278.91667824 -.00893907  00000-0 -72483-1 0  9991,2 55936  69.9998 337.6620 0003175 276.6979 183.4787 15.02532182  6181,6937.228,95.838,561.296,556.891,0.0
